{
"type": "FeatureCollection",
"name": "sentosa_aeds",
"crs": { "type": "name", "properties": { "name": "urn:ogc:def:crs:OGC:1.3:CRS84" } },
"features": [
{ "type": "Feature", "properties": { "OBJECTID": 18662, "AED_ID": "098136-004", "OPERATING_HOURS": "Mon - Sun 00:00-23:59;", "HOUSE_NUMBER": "22", "ROAD_NAME": "Sentosa Gateway", "BUILDING_NAME": "SEA Aquarium", "UNIT_NUMBER": null, "POSTAL_CODE": "98136", "AED_LOCATION_DESCRIPTION": "Level B1M Open Ocean Habitat (Highest Tier Of Viewing Gallery)", "AED_LOCATION_FLOOR_LEVEL": "B1M", "LATITUDE": 1.258654, "LONGITUDE": 103.8183899, "XVAL": 26338.58154, "YVAL": 26801.16493, "INC_CRC": "0CD98DA545DAAB9D", "FMEL_UPD_D": "20200210102016" }, "geometry": { "type": "Point", "coordinates": [ 103.818390225509845, 1.258654664764669 ] } },
{ "type": "Feature", "properties": { "OBJECTID": 18663, "AED_ID": "098136-006", "OPERATING_HOURS": "Mon - Sun 00:00-23:59;", "HOUSE_NUMBER": "22", "ROAD_NAME": "Sentosa Gateway", "BUILDING_NAME": "SEA Aquarium", "UNIT_NUMBER": null, "POSTAL_CODE": "98136", "AED_LOCATION_DESCRIPTION": "Level B1 Freshwater Lakes (Left Side Of Exhibit)", "AED_LOCATION_FLOOR_LEVEL": "B1", "LATITUDE": 1.25855506, "LONGITUDE": 103.8187485, "XVAL": 26378.48903, "YVAL": 26790.22402, "INC_CRC": "50C661B41C959E4A", "FMEL_UPD_D": "20200210102016" }, "geometry": { "type": "Point", "coordinates": [ 103.818748807158812, 1.258555721129933 ] } },
{ "type": "Feature", "properties": { "OBJECTID": 18664, "AED_ID": "098137-001", "OPERATING_HOURS": "Mon - Sun 00:00-23:59;", "HOUSE_NUMBER": "24", "ROAD_NAME": "Sentosa Gateway", "BUILDING_NAME": "SEA Aquarium", "UNIT_NUMBER": null, "POSTAL_CODE": "98137", "AED_LOCATION_DESCRIPTION": "Level B1 Near SEA Aquarium Entrance Or Exit, Opposite Passenger Lift", "AED_LOCATION_FLOOR_LEVEL": "B1", "LATITUDE": 1.25880396, "LONGITUDE": 103.8203583, "XVAL": 26557.6486, "YVAL": 26817.74614, "INC_CRC": "613A270C404E6AE4", "FMEL_UPD_D": "20200210102016" }, "geometry": { "type": "Point", "coordinates": [ 103.820358609704343, 1.258804629948173 ] } },
{ "type": "Feature", "properties": { "OBJECTID": 18665, "AED_ID": "098138-001", "OPERATING_HOURS": "Mon - Sun 00:00-23:59;", "HOUSE_NUMBER": "26", "ROAD_NAME": "Sentosa Gateway", "BUILDING_NAME": "Resorts World Sentosa", "UNIT_NUMBER": null, "POSTAL_CODE": "98138", "AED_LOCATION_DESCRIPTION": "Level 1 Beside Hard Rock Café (Beside Staircase Leading To Hard Rock Hotel)", "AED_LOCATION_FLOOR_LEVEL": "1", "LATITUDE": 1.25736702, "LONGITUDE": 103.8202515, "XVAL": 26545.76045, "YVAL": 26658.85586, "INC_CRC": "3FBC0007241B3217", "FMEL_UPD_D": "20200210102016" }, "geometry": { "type": "Point", "coordinates": [ 103.820251798637941, 1.257367681933842 ] } },
{ "type": "Feature", "properties": { "OBJECTID": 18666, "AED_ID": "098138-002", "OPERATING_HOURS": "Mon - Sun 00:00-23:59;", "HOUSE_NUMBER": "26", "ROAD_NAME": "Sentosa Gateway", "BUILDING_NAME": "Resorts World Sentosa", "UNIT_NUMBER": null, "POSTAL_CODE": "98138", "AED_LOCATION_DESCRIPTION": "Level B1 VIP Car Park Beside Crash Barrier", "AED_LOCATION_FLOOR_LEVEL": "B1", "LATITUDE": 1.25633705, "LONGITUDE": 103.820343, "XVAL": 26555.94905, "YVAL": 26544.96726, "INC_CRC": "CE8E0C8F7C49B7AE", "FMEL_UPD_D": "20200210102016" }, "geometry": { "type": "Point", "coordinates": [ 103.82034335137142, 1.256337713660257 ] } },
{ "type": "Feature", "properties": { "OBJECTID": 18667, "AED_ID": "098138-005", "OPERATING_HOURS": "Mon - Sun 00:00-23:59;", "HOUSE_NUMBER": "26", "ROAD_NAME": "Sentosa Gateway", "BUILDING_NAME": "Resorts World Sentosa", "UNIT_NUMBER": null, "POSTAL_CODE": "98138", "AED_LOCATION_DESCRIPTION": "Level B2 Car Park Opposite Clinic (Pillar Beside Escalator)", "AED_LOCATION_FLOOR_LEVEL": "B2", "LATITUDE": 1.256337, "LONGITUDE": 103.820342, "XVAL": 26555.8358, "YVAL": 26544.9621, "INC_CRC": "C58574BE140272F1", "FMEL_UPD_D": "20200210102016" }, "geometry": { "type": "Point", "coordinates": [ 103.820342333337379, 1.256337666628175 ] } },
{ "type": "Feature", "properties": { "OBJECTID": 18668, "AED_ID": "098138-006", "OPERATING_HOURS": "Mon - Sun 00:00-23:59;", "HOUSE_NUMBER": "26", "ROAD_NAME": "Sentosa Gateway", "BUILDING_NAME": "Resorts World Sentosa", "UNIT_NUMBER": null, "POSTAL_CODE": "98138", "AED_LOCATION_DESCRIPTION": "Level 1 Walkway Outside Malaysia Food Street (Facing Water Front)", "AED_LOCATION_FLOOR_LEVEL": "1", "LATITUDE": 1.25717902, "LONGITUDE": 103.8218842, "XVAL": 26727.46716, "YVAL": 26638.06771, "INC_CRC": "D6448914480317C4", "FMEL_UPD_D": "20200210102016" }, "geometry": { "type": "Point", "coordinates": [ 103.821884488976139, 1.257179688430052 ] } },
{ "type": "Feature", "properties": { "OBJECTID": 18669, "AED_ID": "098138-007", "OPERATING_HOURS": "Mon - Sun 00:00-23:59;", "HOUSE_NUMBER": "26", "ROAD_NAME": "Sentosa Gateway", "BUILDING_NAME": "Resorts World Sentosa", "UNIT_NUMBER": null, "POSTAL_CODE": "98138", "AED_LOCATION_DESCRIPTION": "Level B1 Car Park Red Zone, Pillar L Beside Zebra Crossing To Red Zone Car Park", "AED_LOCATION_FLOOR_LEVEL": "B1", "LATITUDE": 1.25674796, "LONGITUDE": 103.8205032, "XVAL": 26573.78032, "YVAL": 26590.40396, "INC_CRC": "831F0D6A93F97497", "FMEL_UPD_D": "20200210102016" }, "geometry": { "type": "Point", "coordinates": [ 103.820503568015098, 1.256748628108487 ] } },
{ "type": "Feature", "properties": { "OBJECTID": 18670, "AED_ID": "098138-008", "OPERATING_HOURS": "Mon - Sun 00:00-23:59;", "HOUSE_NUMBER": "26", "ROAD_NAME": "Sentosa Gateway", "BUILDING_NAME": "Resorts World Sentosa", "UNIT_NUMBER": null, "POSTAL_CODE": "98138", "AED_LOCATION_DESCRIPTION": "Level B1 Car Park Green Zone, Pillar H Opposite Escalator To Water Front Mountain Area", "AED_LOCATION_FLOOR_LEVEL": "B1", "LATITUDE": 1.25619495, "LONGITUDE": 103.8221283, "XVAL": 26754.6378, "YVAL": 26529.25394, "INC_CRC": "234E941C1CF0C489", "FMEL_UPD_D": "20200210102016" }, "geometry": { "type": "Point", "coordinates": [ 103.82212862919107, 1.256195615473778 ] } },
{ "type": "Feature", "properties": { "OBJECTID": 18671, "AED_ID": "098139-002", "OPERATING_HOURS": "Mon - Sun 00:00-23:59;", "HOUSE_NUMBER": "28", "ROAD_NAME": "Sentosa Gateway", "BUILDING_NAME": "Hard Rock Hotel", "UNIT_NUMBER": null, "POSTAL_CODE": "98139", "AED_LOCATION_DESCRIPTION": "Level 2 Hard Rock Hotel Pool Towel Kiosk", "AED_LOCATION_FLOOR_LEVEL": "2", "LATITUDE": 1.25730896, "LONGITUDE": 103.8190308, "XVAL": 26409.90486, "YVAL": 26652.43716, "INC_CRC": "4BB8FF3E4E6BF1BC", "FMEL_UPD_D": "20200210102016" }, "geometry": { "type": "Point", "coordinates": [ 103.819031095408022, 1.257309627010015 ] } },
{ "type": "Feature", "properties": { "OBJECTID": 18672, "AED_ID": "098139-003", "OPERATING_HOURS": "Mon - Sun 00:00-23:59;", "HOUSE_NUMBER": "28", "ROAD_NAME": "Sentosa Gateway", "BUILDING_NAME": "Hard Rock Hotel", "UNIT_NUMBER": null, "POSTAL_CODE": "98139", "AED_LOCATION_DESCRIPTION": "Level 2 Hard Rock Hotel Swimming Pool (Behind Pool Slide)", "AED_LOCATION_FLOOR_LEVEL": "2", "LATITUDE": 1.25744402, "LONGITUDE": 103.8194199, "XVAL": 26453.2089, "YVAL": 26667.37161, "INC_CRC": "724639E42C5BC012", "FMEL_UPD_D": "20200210102016" }, "geometry": { "type": "Point", "coordinates": [ 103.819420194186023, 1.257444690624002 ] } },
{ "type": "Feature", "properties": { "OBJECTID": 18673, "AED_ID": "098140-001", "OPERATING_HOURS": "Mon - Sun 00:00-23:59;", "HOUSE_NUMBER": "30", "ROAD_NAME": "Sentosa Gateway", "BUILDING_NAME": "Universal Studios Singapore", "UNIT_NUMBER": null, "POSTAL_CODE": "98140", "AED_LOCATION_DESCRIPTION": "Level 1 Beside That's A Wrap Retail Shop (Inside Lockers Area)", "AED_LOCATION_FLOOR_LEVEL": "1", "LATITUDE": 1.25622296, "LONGITUDE": 103.8213806, "XVAL": 26671.42626, "YVAL": 26532.35197, "INC_CRC": "E2BC72D7FBD94B07", "FMEL_UPD_D": "20200210102016" }, "geometry": { "type": "Point", "coordinates": [ 103.821380948963309, 1.256223630274758 ] } },
{ "type": "Feature", "properties": { "OBJECTID": 18674, "AED_ID": "098140-002", "OPERATING_HOURS": "Mon - Sun 00:00-23:59;", "HOUSE_NUMBER": "30", "ROAD_NAME": "Sentosa Gateway", "BUILDING_NAME": "Universal Studios Singapore", "UNIT_NUMBER": null, "POSTAL_CODE": "98140", "AED_LOCATION_DESCRIPTION": "Level 1 Sci-Fi Transformers Ride (Ride Unload Area)", "AED_LOCATION_FLOOR_LEVEL": "1", "LATITUDE": 1.25433099, "LONGITUDE": 103.8215485, "XVAL": 26690.10546, "YVAL": 26323.14759, "INC_CRC": "0CA708FCA770F385", "FMEL_UPD_D": "20200210102016" }, "geometry": { "type": "Point", "coordinates": [ 103.821548795607768, 1.254331659461586 ] } },
{ "type": "Feature", "properties": { "OBJECTID": 18675, "AED_ID": "098140-004", "OPERATING_HOURS": "Mon - Sun 00:00-23:59;", "HOUSE_NUMBER": "30", "ROAD_NAME": "Sentosa Gateway", "BUILDING_NAME": "Universal Studios Singapore", "UNIT_NUMBER": null, "POSTAL_CODE": "98140", "AED_LOCATION_DESCRIPTION": "Level 1 Sesame Street Spaghetti Space Chase (Exit To Retail)", "AED_LOCATION_FLOOR_LEVEL": "1", "LATITUDE": 1.25511205, "LONGITUDE": 103.8215332, "XVAL": 26688.40765, "YVAL": 26409.51308, "INC_CRC": "82C548519A070A02", "FMEL_UPD_D": "20200210102016" }, "geometry": { "type": "Point", "coordinates": [ 103.821533536880565, 1.255112718835748 ] } },
{ "type": "Feature", "properties": { "OBJECTID": 18676, "AED_ID": "098140-005", "OPERATING_HOURS": "Mon - Sun 00:00-23:59;", "HOUSE_NUMBER": "30", "ROAD_NAME": "Sentosa Gateway", "BUILDING_NAME": "Universal Studios Singapore", "UNIT_NUMBER": null, "POSTAL_CODE": "98140", "AED_LOCATION_DESCRIPTION": "Level 1 New York Lights, Camera, Action (Corridor After Pre-Show Area)", "AED_LOCATION_FLOOR_LEVEL": "1", "LATITUDE": 1.25485694, "LONGITUDE": 103.82164, "XVAL": 26700.2949, "YVAL": 26381.30452, "INC_CRC": "3C25F760B29F6588", "FMEL_UPD_D": "20200210102016" }, "geometry": { "type": "Point", "coordinates": [ 103.8216403480004, 1.254857610584381 ] } },
{ "type": "Feature", "properties": { "OBJECTID": 18677, "AED_ID": "098140-006", "OPERATING_HOURS": "Mon - Sun 00:00-23:59;", "HOUSE_NUMBER": "30", "ROAD_NAME": "Sentosa Gateway", "BUILDING_NAME": "Universal Studios Singapore", "UNIT_NUMBER": null, "POSTAL_CODE": "98140", "AED_LOCATION_DESCRIPTION": "Level 1 Sci-Fi Accelerator (Control Counter)", "AED_LOCATION_FLOOR_LEVEL": "1", "LATITUDE": 1.25375998, "LONGITUDE": 103.8215866, "XVAL": 26694.35067, "YVAL": 26260.00797, "INC_CRC": "217479091F088F76", "FMEL_UPD_D": "20200210102016" }, "geometry": { "type": "Point", "coordinates": [ 103.82158694251207, 1.253760647122278 ] } },
{ "type": "Feature", "properties": { "OBJECTID": 18678, "AED_ID": "098140-007", "OPERATING_HOURS": "Mon - Sun 00:00-23:59;", "HOUSE_NUMBER": "30", "ROAD_NAME": "Sentosa Gateway", "BUILDING_NAME": "Universal Studios Singapore", "UNIT_NUMBER": null, "POSTAL_CODE": "98140", "AED_LOCATION_DESCRIPTION": "Level 1 Hollywood Theater Pantages (Right Side Of Theatre Or Stage Left)", "AED_LOCATION_FLOOR_LEVEL": "1", "LATITUDE": 1.25550306, "LONGITUDE": 103.8219376, "XVAL": 26733.41003, "YVAL": 26452.74834, "INC_CRC": "0F1119BE37CBC043", "FMEL_UPD_D": "20200210102016" }, "geometry": { "type": "Point", "coordinates": [ 103.821937894084655, 1.255503724700184 ] } },
{ "type": "Feature", "properties": { "OBJECTID": 18679, "AED_ID": "098140-009", "OPERATING_HOURS": "Mon - Sun 00:00-23:59;", "HOUSE_NUMBER": "30", "ROAD_NAME": "Sentosa Gateway", "BUILDING_NAME": "Universal Studios Singapore", "UNIT_NUMBER": null, "POSTAL_CODE": "98140", "AED_LOCATION_DESCRIPTION": "Level 2 Sci-Fi Battlestar Galactica (Lift Lobby)", "AED_LOCATION_FLOOR_LEVEL": "2", "LATITUDE": 1.25328004, "LONGITUDE": 103.8217316, "XVAL": 26710.4833, "YVAL": 26206.939, "INC_CRC": "56C825CB647BA086", "FMEL_UPD_D": "20200210102016" }, "geometry": { "type": "Point", "coordinates": [ 103.821731900704037, 1.253280710251237 ] } },
{ "type": "Feature", "properties": { "OBJECTID": 18680, "AED_ID": "098140-010", "OPERATING_HOURS": "Mon - Sun 00:00-23:59;", "HOUSE_NUMBER": "30", "ROAD_NAME": "Sentosa Gateway", "BUILDING_NAME": "Universal Studios Singapore", "UNIT_NUMBER": null, "POSTAL_CODE": "98140", "AED_LOCATION_DESCRIPTION": "Level 2 Egypt Revenge Of Mummy (Ride Unload Area)", "AED_LOCATION_FLOOR_LEVEL": "2", "LATITUDE": 1.253425, "LONGITUDE": 103.8232346, "XVAL": 26877.75577, "YVAL": 26222.96707, "INC_CRC": "E5FD2AF2E78F8BD3", "FMEL_UPD_D": "20200210102016" }, "geometry": { "type": "Point", "coordinates": [ 103.823234891700309, 1.253425669062345 ] } },
{ "type": "Feature", "properties": { "OBJECTID": 18681, "AED_ID": "098140-011", "OPERATING_HOURS": "Mon - Sun 00:00-23:59;", "HOUSE_NUMBER": "30", "ROAD_NAME": "Sentosa Gateway", "BUILDING_NAME": "Universal Studios Singapore", "UNIT_NUMBER": null, "POSTAL_CODE": "98140", "AED_LOCATION_DESCRIPTION": "Level 1 Madagascar Crate Adventure (Ride Unload Area)", "AED_LOCATION_FLOOR_LEVEL": "1", "LATITUDE": 1.25580096, "LONGITUDE": 103.8229904, "XVAL": 26850.58566, "YVAL": 26485.68854, "INC_CRC": "455C730B2E29A955", "FMEL_UPD_D": "20200210102016" }, "geometry": { "type": "Point", "coordinates": [ 103.822990751188541, 1.255801628777945 ] } },
{ "type": "Feature", "properties": { "OBJECTID": 18682, "AED_ID": "098140-012", "OPERATING_HOURS": "Mon - Sun 00:00-23:59;", "HOUSE_NUMBER": "30", "ROAD_NAME": "Sentosa Gateway", "BUILDING_NAME": "Universal Studios Singapore", "UNIT_NUMBER": null, "POSTAL_CODE": "98140", "AED_LOCATION_DESCRIPTION": "Level 1 Egypt Treasure Hunters (Control Counter)", "AED_LOCATION_FLOOR_LEVEL": "1", "LATITUDE": 1.25385106, "LONGITUDE": 103.8229523, "XVAL": 26846.33931, "YVAL": 26270.07803, "INC_CRC": "56EE875E751D4AF0", "FMEL_UPD_D": "20200210102016" }, "geometry": { "type": "Point", "coordinates": [ 103.822952603712494, 1.253851722496704 ] } },
{ "type": "Feature", "properties": { "OBJECTID": 18683, "AED_ID": "098140-013", "OPERATING_HOURS": "Mon - Sun 00:00-23:59;", "HOUSE_NUMBER": "30", "ROAD_NAME": "Sentosa Gateway", "BUILDING_NAME": "Universal Studios Singapore", "UNIT_NUMBER": null, "POSTAL_CODE": "98140", "AED_LOCATION_DESCRIPTION": "Level 1 FFA Enchanted Airways (Opposite Control Station)", "AED_LOCATION_FLOOR_LEVEL": "1", "LATITUDE": 1.25494301, "LONGITUDE": 103.8234787, "XVAL": 26904.92755, "YVAL": 26390.82075, "INC_CRC": "8946FF6B5740E483", "FMEL_UPD_D": "20200210102016" }, "geometry": { "type": "Point", "coordinates": [ 103.823479032479455, 1.254943680301871 ] } },
{ "type": "Feature", "properties": { "OBJECTID": 18684, "AED_ID": "098140-015", "OPERATING_HOURS": "Mon - Sun 00:00-23:59;", "HOUSE_NUMBER": "30", "ROAD_NAME": "Sentosa Gateway", "BUILDING_NAME": "Universal Studios Singapore", "UNIT_NUMBER": null, "POSTAL_CODE": "98140", "AED_LOCATION_DESCRIPTION": "Level 1 FFA Fairy Godmother (Pillar Beside Ferris Wheel)", "AED_LOCATION_FLOOR_LEVEL": "1", "LATITUDE": 1.25502598, "LONGITUDE": 103.8238754, "XVAL": 26949.08068, "YVAL": 26399.99494, "INC_CRC": "2AC9D97DE1D11A4D", "FMEL_UPD_D": "20200210102016" }, "geometry": { "type": "Point", "coordinates": [ 103.823875760743562, 1.255026649135089 ] } },
{ "type": "Feature", "properties": { "OBJECTID": 18561, "AED_ID": "098140-016", "OPERATING_HOURS": "Mon - Sun 00:00-23:59;", "HOUSE_NUMBER": "30", "ROAD_NAME": "Sentosa Gateway", "BUILDING_NAME": "Universal Studios Singapore", "UNIT_NUMBER": null, "POSTAL_CODE": "98140", "AED_LOCATION_DESCRIPTION": "Level 1 Jurassic Park Amber Rocks (Control Counter)", "AED_LOCATION_FLOOR_LEVEL": "1", "LATITUDE": 1.25357294, "LONGITUDE": 103.8245926, "XVAL": 27028.89535, "YVAL": 26239.32482, "INC_CRC": "BEB7A168F3159721", "FMEL_UPD_D": "20200210102016" }, "geometry": { "type": "Point", "coordinates": [ 103.82459292409267, 1.253573607311137 ] } },
{ "type": "Feature", "properties": { "OBJECTID": 18562, "AED_ID": "098140-017", "OPERATING_HOURS": "Mon - Sun 00:00-23:59;", "HOUSE_NUMBER": "30", "ROAD_NAME": "Sentosa Gateway", "BUILDING_NAME": "Universal Studios Singapore", "UNIT_NUMBER": null, "POSTAL_CODE": "98140", "AED_LOCATION_DESCRIPTION": "Level 1 Water World (Behind Middle Section Of Seating Gallery)", "AED_LOCATION_FLOOR_LEVEL": "1", "LATITUDE": 1.25321102, "LONGITUDE": 103.8248444, "XVAL": 27056.91547, "YVAL": 26199.30556, "INC_CRC": "6D3F4B9CD5D4F34B", "FMEL_UPD_D": "20200210102016" }, "geometry": { "type": "Point", "coordinates": [ 103.824844693949984, 1.2532116884578 ] } },
{ "type": "Feature", "properties": { "OBJECTID": 18563, "AED_ID": "098140-018", "OPERATING_HOURS": "Mon - Sun 00:00-23:59;", "HOUSE_NUMBER": "30", "ROAD_NAME": "Sentosa Gateway", "BUILDING_NAME": "Universal Studios Singapore", "UNIT_NUMBER": null, "POSTAL_CODE": "98140", "AED_LOCATION_DESCRIPTION": "Level 2 Jurassic Park Canopy Flyer", "AED_LOCATION_FLOOR_LEVEL": "2", "LATITUDE": 1.25390804, "LONGITUDE": 103.8242874, "XVAL": 26994.93154, "YVAL": 26276.37826, "INC_CRC": "3C661E01E8A6472D", "FMEL_UPD_D": "20200210102016" }, "geometry": { "type": "Point", "coordinates": [ 103.82428774749097, 1.253908705197199 ] } },
{ "type": "Feature", "properties": { "OBJECTID": 18564, "AED_ID": "098140-019", "OPERATING_HOURS": "Mon - Sun 00:00-23:59;", "HOUSE_NUMBER": "30", "ROAD_NAME": "Sentosa Gateway", "BUILDING_NAME": "Universal Studios Singapore", "UNIT_NUMBER": null, "POSTAL_CODE": "98140", "AED_LOCATION_DESCRIPTION": "Level 2 FFA Puss In Boots Giant Journey (Outside Control Room)", "AED_LOCATION_FLOOR_LEVEL": "2", "LATITUDE": 1.25452495, "LONGITUDE": 103.8243637, "XVAL": 27003.42276, "YVAL": 26344.59272, "INC_CRC": "98E71CC3F49C37DB", "FMEL_UPD_D": "20200210102016" }, "geometry": { "type": "Point", "coordinates": [ 103.824364042183575, 1.254525612698409 ] } },
{ "type": "Feature", "properties": { "OBJECTID": 18565, "AED_ID": "098269-010", "OPERATING_HOURS": "Mon - Sun 00:00-23:59;", "HOUSE_NUMBER": "8", "ROAD_NAME": "Sentosa Gateway", "BUILDING_NAME": "Resorts World Casino", "UNIT_NUMBER": null, "POSTAL_CODE": "98269", "AED_LOCATION_DESCRIPTION": "Casino - 10 AEDs Available. Please Approach RWS Staffs For Assistance", "AED_LOCATION_FLOOR_LEVEL": "1", "LATITUDE": 1.25535095, "LONGITUDE": 103.8204269, "XVAL": 26565.28858, "YVAL": 26435.92947, "INC_CRC": "7BDB57DB316D02A8", "FMEL_UPD_D": "20200210102016" }, "geometry": { "type": "Point", "coordinates": [ 103.820427274400302, 1.255351614278723 ] } },
{ "type": "Feature", "properties": { "OBJECTID": 18657, "AED_ID": "098133-002", "OPERATING_HOURS": "Mon - Sun 00:00-23:59;", "HOUSE_NUMBER": "16", "ROAD_NAME": "Sentosa Gateway", "BUILDING_NAME": "Equarius Hotel", "UNIT_NUMBER": null, "POSTAL_CODE": "98133", "AED_LOCATION_DESCRIPTION": "Level B1M Ocean Suites, Right Side Of Ocean Restaurant Entrance", "AED_LOCATION_FLOOR_LEVEL": "B1M", "LATITUDE": 1.257671, "LONGITUDE": 103.8168945, "XVAL": 26172.15789, "YVAL": 26692.47091, "INC_CRC": "5B5EC99007827FA6", "FMEL_UPD_D": "20200210102016" }, "geometry": { "type": "Point", "coordinates": [ 103.816894864696764, 1.257671665151174 ] } },
{ "type": "Feature", "properties": { "OBJECTID": 18658, "AED_ID": "098134-002", "OPERATING_HOURS": "Mon - Sun 00:00-23:59;", "HOUSE_NUMBER": "18", "ROAD_NAME": "Sentosa Gateway", "BUILDING_NAME": "ESPA (RWS)", "UNIT_NUMBER": null, "POSTAL_CODE": "98134", "AED_LOCATION_DESCRIPTION": "Level 1 Female Sleep Zone Corridor", "AED_LOCATION_FLOOR_LEVEL": "1", "LATITUDE": 1.25865102, "LONGITUDE": 103.8162766, "XVAL": 26103.38173, "YVAL": 26800.83683, "INC_CRC": "A6EEFC665DF17174", "FMEL_UPD_D": "20200210102016" }, "geometry": { "type": "Point", "coordinates": [ 103.816276883366655, 1.258651684495613 ] } },
{ "type": "Feature", "properties": { "OBJECTID": 18659, "AED_ID": "098136-001", "OPERATING_HOURS": "Mon - Sun 00:00-23:59;", "HOUSE_NUMBER": "22", "ROAD_NAME": "Sentosa Gateway", "BUILDING_NAME": "Adventure Cove Waterpark", "UNIT_NUMBER": null, "POSTAL_CODE": "98136", "AED_LOCATION_DESCRIPTION": "Level 1 Bay Restaurant (Outside Restroom Area)", "AED_LOCATION_FLOOR_LEVEL": "1", "LATITUDE": 1.25801098, "LONGITUDE": 103.817543, "XVAL": 26244.33137, "YVAL": 26730.06423, "INC_CRC": "7D33E6BB7A56551C", "FMEL_UPD_D": "20200210102016" }, "geometry": { "type": "Point", "coordinates": [ 103.817543363389234, 1.258011649852895 ] } },
{ "type": "Feature", "properties": { "OBJECTID": 18660, "AED_ID": "098136-002", "OPERATING_HOURS": "Mon - Sun 00:00-23:59;", "HOUSE_NUMBER": "22", "ROAD_NAME": "Sentosa Gateway", "BUILDING_NAME": "SEA Aquarium", "UNIT_NUMBER": null, "POSTAL_CODE": "98136", "AED_LOCATION_DESCRIPTION": "Level 1 Dolphin Island (Guest Holding Area)", "AED_LOCATION_FLOOR_LEVEL": "1", "LATITUDE": 1.25914502, "LONGITUDE": 103.8187866, "XVAL": 26382.73488, "YVAL": 26855.45947, "INC_CRC": "5B25EA9881CB8B41", "FMEL_UPD_D": "20200210102016" }, "geometry": { "type": "Point", "coordinates": [ 103.818786954598778, 1.259145688416075 ] } },
{ "type": "Feature", "properties": { "OBJECTID": 18661, "AED_ID": "098136-003", "OPERATING_HOURS": "Mon - Sun 00:00-23:59;", "HOUSE_NUMBER": "22", "ROAD_NAME": "Sentosa Gateway", "BUILDING_NAME": "Adventure Cove Waterpark", "UNIT_NUMBER": null, "POSTAL_CODE": "98136", "AED_LOCATION_DESCRIPTION": "Level 1 Locker Zone 1 (Beside Lazy Pool Entrance)", "AED_LOCATION_FLOOR_LEVEL": "1", "LATITUDE": 1.25845599, "LONGITUDE": 103.8190536, "XVAL": 26412.45285, "YVAL": 26779.26997, "INC_CRC": "4D9DBF2609F43461", "FMEL_UPD_D": "20200210102016" }, "geometry": { "type": "Point", "coordinates": [ 103.819053983721091, 1.258456658679706 ] } },
{ "type": "Feature", "properties": { "OBJECTID": 19406, "AED_ID": "098133-001", "OPERATING_HOURS": "Mon - Sun 00:00-23:59;", "HOUSE_NUMBER": "16", "ROAD_NAME": "Sentosa Gateway", "BUILDING_NAME": "Equarius Hotel", "UNIT_NUMBER": null, "POSTAL_CODE": "98133", "AED_LOCATION_DESCRIPTION": "Level 1 Equarius Hotel Reception Counter", "AED_LOCATION_FLOOR_LEVEL": "1", "LATITUDE": 1.25786603, "LONGITUDE": 103.8165054, "XVAL": 26128.85407, "YVAL": 26714.03619, "INC_CRC": "0AAD9E1AE71C386E", "FMEL_UPD_D": "20191007131012" }, "geometry": { "type": "Point", "coordinates": [ 103.816505765702615, 1.257866691694617 ] } },
{ "type": "Feature", "properties": { "OBJECTID": 19407, "AED_ID": "098134-001", "OPERATING_HOURS": "Mon - Sun 00:00-23:59;", "HOUSE_NUMBER": "18", "ROAD_NAME": "Sentosa Gateway", "BUILDING_NAME": "ESPA (RWS)", "UNIT_NUMBER": null, "POSTAL_CODE": "98134", "AED_LOCATION_DESCRIPTION": "Level 1 Reception Counter", "AED_LOCATION_FLOOR_LEVEL": "1", "LATITUDE": 1.25865102, "LONGITUDE": 103.8162766, "XVAL": 26103.38173, "YVAL": 26800.83683, "INC_CRC": "A6EEFC66C6B8DDCE", "FMEL_UPD_D": "20191007131012" }, "geometry": { "type": "Point", "coordinates": [ 103.816276883366655, 1.258651684495613 ] } },
{ "type": "Feature", "properties": { "OBJECTID": 19408, "AED_ID": "098271-001", "OPERATING_HOURS": "Mon - Sun 00:00-23:59;", "HOUSE_NUMBER": "12", "ROAD_NAME": "Sentosa Gateway", "BUILDING_NAME": "Festive Hotel", "UNIT_NUMBER": null, "POSTAL_CODE": "98271", "AED_LOCATION_DESCRIPTION": "Level 2 Festive Hotel Reception Counter", "AED_LOCATION_FLOOR_LEVEL": "2", "LATITUDE": 1.25624096, "LONGITUDE": 103.8189468, "XVAL": 26400.56414, "YVAL": 26534.34375, "INC_CRC": "833E75601D151355", "FMEL_UPD_D": "20191007131012" }, "geometry": { "type": "Point", "coordinates": [ 103.818947171348128, 1.256241631074926 ] } },
{ "type": "Feature", "properties": { "OBJECTID": 19409, "AED_ID": "098271-002", "OPERATING_HOURS": "Mon - Sun 00:00-23:59;", "HOUSE_NUMBER": "12", "ROAD_NAME": "Sentosa Gateway", "BUILDING_NAME": "Festive Hotel", "UNIT_NUMBER": null, "POSTAL_CODE": "98271", "AED_LOCATION_DESCRIPTION": "Level 3 Festive Hotel Towel Section (Pool Area)", "AED_LOCATION_FLOOR_LEVEL": "3", "LATITUDE": 1.25655198, "LONGITUDE": 103.8193817, "XVAL": 26448.96289, "YVAL": 26568.73414, "INC_CRC": "080092EF2080F884", "FMEL_UPD_D": "20191007131012" }, "geometry": { "type": "Point", "coordinates": [ 103.819382047328332, 1.256552647313434 ] } },
{ "type": "Feature", "properties": { "OBJECTID": 19410, "AED_ID": "098270-001", "OPERATING_HOURS": "Mon - Sun 00:00-23:59;", "HOUSE_NUMBER": "10", "ROAD_NAME": "Sentosa Gateway", "BUILDING_NAME": "Crockfords Tower", "UNIT_NUMBER": null, "POSTAL_CODE": "98270", "AED_LOCATION_DESCRIPTION": "Level 2 Crockfords Tower Reception Counter", "AED_LOCATION_FLOOR_LEVEL": "2", "LATITUDE": 1.25554895, "LONGITUDE": 103.8195877, "XVAL": 26471.88793, "YVAL": 26457.8245, "INC_CRC": "2EE5E6A26BF6E198", "FMEL_UPD_D": "20191007131012" }, "geometry": { "type": "Point", "coordinates": [ 103.819588040545128, 1.255549620711521 ] } },
{ "type": "Feature", "properties": { "OBJECTID": 19411, "AED_ID": "098269-003", "OPERATING_HOURS": "Mon - Sun 00:00-23:59;", "HOUSE_NUMBER": "8", "ROAD_NAME": "Sentosa Gateway", "BUILDING_NAME": "Hotel Michael", "UNIT_NUMBER": null, "POSTAL_CODE": "98269", "AED_LOCATION_DESCRIPTION": "Level 2 Hotel Michael Concierge Counter", "AED_LOCATION_FLOOR_LEVEL": "2", "LATITUDE": 1.25473905, "LONGITUDE": 103.8200455, "XVAL": 26522.83335, "YVAL": 26368.26882, "INC_CRC": "48CC2E6800DB2581", "FMEL_UPD_D": "20191007131012" }, "geometry": { "type": "Point", "coordinates": [ 103.820045805001584, 1.254739712601486 ] } },
{ "type": "Feature", "properties": { "OBJECTID": 19412, "AED_ID": "098139-001", "OPERATING_HOURS": "Mon - Sun 00:00-23:59;", "HOUSE_NUMBER": "28", "ROAD_NAME": "Sentosa Gateway", "BUILDING_NAME": "Hard Rock Hotel", "UNIT_NUMBER": null, "POSTAL_CODE": "98139", "AED_LOCATION_DESCRIPTION": "Level 2 Hard Rock Hotel Reception Counter", "AED_LOCATION_FLOOR_LEVEL": "2", "LATITUDE": 1.25777996, "LONGITUDE": 103.8188782, "XVAL": 26392.9232, "YVAL": 26704.51754, "INC_CRC": "A72D1842AB2F8199", "FMEL_UPD_D": "20191007131012" }, "geometry": { "type": "Point", "coordinates": [ 103.818878507123955, 1.257780622208017 ] } },
{ "type": "Feature", "properties": { "OBJECTID": 19413, "AED_ID": "098137-002", "OPERATING_HOURS": "Mon - Sun 00:00-23:59;", "HOUSE_NUMBER": "24", "ROAD_NAME": "Sentosa Gateway", "BUILDING_NAME": "Maritime Experiential Museum", "UNIT_NUMBER": null, "POSTAL_CODE": "98137", "AED_LOCATION_DESCRIPTION": "Level 1 Inside Typhoon Theatre", "AED_LOCATION_FLOOR_LEVEL": "1", "LATITUDE": 1.25880396, "LONGITUDE": 103.8203583, "XVAL": 26557.6486, "YVAL": 26817.74614, "INC_CRC": "613A270CAD45F6B7", "FMEL_UPD_D": "20191007131012" }, "geometry": { "type": "Point", "coordinates": [ 103.820358609704343, 1.258804629948173 ] } },
{ "type": "Feature", "properties": { "OBJECTID": 19414, "AED_ID": "098140-003", "OPERATING_HOURS": "Mon - Sun 00:00-23:59;", "HOUSE_NUMBER": "30", "ROAD_NAME": "Sentosa Gateway", "BUILDING_NAME": "Universal Studios Singapore", "UNIT_NUMBER": null, "POSTAL_CODE": "98140", "AED_LOCATION_DESCRIPTION": "Level 1 Annual Pass Office", "AED_LOCATION_FLOOR_LEVEL": "1", "LATITUDE": 1.25624096, "LONGITUDE": 103.8217773, "XVAL": 26715.57934, "YVAL": 26534.34218, "INC_CRC": "74064DD4B69E3E82", "FMEL_UPD_D": "20191007131012" }, "geometry": { "type": "Point", "coordinates": [ 103.821777676738037, 1.256241630744731 ] } },
{ "type": "Feature", "properties": { "OBJECTID": 19415, "AED_ID": "098140-008", "OPERATING_HOURS": "Mon - Sun 00:00-23:59;", "HOUSE_NUMBER": "30", "ROAD_NAME": "Sentosa Gateway", "BUILDING_NAME": "Universal Studios Singapore", "UNIT_NUMBER": null, "POSTAL_CODE": "98140", "AED_LOCATION_DESCRIPTION": "Level 1 King Juliens Beach Party-Go-Round (Control Station)", "AED_LOCATION_FLOOR_LEVEL": "1", "LATITUDE": 1.25572205, "LONGITUDE": 103.8231049, "XVAL": 26863.32209, "YVAL": 26476.9623, "INC_CRC": "7EABA162414EF451", "FMEL_UPD_D": "20191007131012" }, "geometry": { "type": "Point", "coordinates": [ 103.823105191824425, 1.255722712523671 ] } },
{ "type": "Feature", "properties": { "OBJECTID": 19416, "AED_ID": "098140-014", "OPERATING_HOURS": "Mon - Sun 00:00-23:59;", "HOUSE_NUMBER": "30", "ROAD_NAME": "Sentosa Gateway", "BUILDING_NAME": "Universal Studios Singapore", "UNIT_NUMBER": null, "POSTAL_CODE": "98140", "AED_LOCATION_DESCRIPTION": "Level 1 Jurassic Park Rapids Adventure", "AED_LOCATION_FLOOR_LEVEL": "1", "LATITUDE": 1.25326395, "LONGITUDE": 103.8239441, "XVAL": 26956.72186, "YVAL": 26205.15851, "INC_CRC": "5318EE43340D5D15", "FMEL_UPD_D": "20191007131012" }, "geometry": { "type": "Point", "coordinates": [ 103.823944425449341, 1.253264616952191 ] } },
{ "type": "Feature", "properties": { "OBJECTID": 20049, "AED_ID": "098679-003", "OPERATING_HOURS": "Mon - Sun 00:00-23:59;", "HOUSE_NUMBER": "23", "ROAD_NAME": "Beach View", "BUILDING_NAME": "Le Meridien Singapore, Sentosa", "UNIT_NUMBER": null, "POSTAL_CODE": "98679", "AED_LOCATION_DESCRIPTION": "Level 2 Bar Lounge", "AED_LOCATION_FLOOR_LEVEL": "2", "LATITUDE": 1.25332296, "LONGITUDE": 103.8196487, "XVAL": 26478.67943, "YVAL": 26211.68548, "INC_CRC": "2D854E356D7166F9", "FMEL_UPD_D": "20191007131012" }, "geometry": { "type": "Point", "coordinates": [ 103.819649075742902, 1.253323625823415 ] } },
{ "type": "Feature", "properties": { "OBJECTID": 20037, "AED_ID": "099394-003", "OPERATING_HOURS": "Mon - Sun 00:00-23:59;", "HOUSE_NUMBER": "1", "ROAD_NAME": "Larkhill Road", "BUILDING_NAME": "Amara Sanctuary Resort, Sentosa", "UNIT_NUMBER": null, "POSTAL_CODE": "99394", "AED_LOCATION_DESCRIPTION": "Level 2 Sanctuary Block Lift Lobby", "AED_LOCATION_FLOOR_LEVEL": "2", "LATITUDE": 1.25130105, "LONGITUDE": 103.8223572, "XVAL": 26780.10846, "YVAL": 25988.11188, "INC_CRC": "A7A18C0245F898D3", "FMEL_UPD_D": "20191007131012" }, "geometry": { "type": "Point", "coordinates": [ 103.822357511394216, 1.251301716993008 ] } },
{ "type": "Feature", "properties": { "OBJECTID": 20038, "AED_ID": "099394-002", "OPERATING_HOURS": "Mon - Sun 00:00-23:59;", "HOUSE_NUMBER": "1", "ROAD_NAME": "Larkhill Road", "BUILDING_NAME": "Amara Sanctuary Resort, Sentosa", "UNIT_NUMBER": null, "POSTAL_CODE": "99394", "AED_LOCATION_DESCRIPTION": "Level 1 Gym Outside Executive Room", "AED_LOCATION_FLOOR_LEVEL": "1", "LATITUDE": 1.25108099, "LONGITUDE": 103.8229523, "XVAL": 26846.3381, "YVAL": 25963.77848, "INC_CRC": "0D155600EE32C5C3", "FMEL_UPD_D": "20191007131012" }, "geometry": { "type": "Point", "coordinates": [ 103.822952603829293, 1.251081656645627 ] } },
{ "type": "Feature", "properties": { "OBJECTID": 20039, "AED_ID": "099394-001", "OPERATING_HOURS": "Mon - Sun 00:00-23:59;", "HOUSE_NUMBER": "1", "ROAD_NAME": "Larkhill Road", "BUILDING_NAME": "Amara Sanctuary Resort, Sentosa", "UNIT_NUMBER": null, "POSTAL_CODE": "99394", "AED_LOCATION_DESCRIPTION": "Level 1 Outside FCC", "AED_LOCATION_FLOOR_LEVEL": "1", "LATITUDE": 1.25167894, "LONGITUDE": 103.8222961, "XVAL": 26773.31585, "YVAL": 26029.89741, "INC_CRC": "40C3B3B587647B50", "FMEL_UPD_D": "20191007131012" }, "geometry": { "type": "Point", "coordinates": [ 103.82229647639457, 1.251679610225941 ] } },
{ "type": "Feature", "properties": { "OBJECTID": 20044, "AED_ID": "098679-002", "OPERATING_HOURS": "Mon - Sun 00:00-23:59;", "HOUSE_NUMBER": "23", "ROAD_NAME": "Beach View", "BUILDING_NAME": "Le Meridien Singapore, Sentosa", "UNIT_NUMBER": null, "POSTAL_CODE": "98679", "AED_LOCATION_DESCRIPTION": "Level 1 Hotel Frontdesk", "AED_LOCATION_FLOOR_LEVEL": "1", "LATITUDE": 1.25311399, "LONGITUDE": 103.8195648, "XVAL": 26469.33922, "YVAL": 26188.57828, "INC_CRC": "A3F3A1BCBAF37012", "FMEL_UPD_D": "20191007131012" }, "geometry": { "type": "Point", "coordinates": [ 103.819565152448646, 1.253114651926828 ] } },
{ "type": "Feature", "properties": { "OBJECTID": 20105, "AED_ID": "900021-001", "OPERATING_HOURS": "Mon - Fri 08:30-18:00; Sat - Sun Closed;", "HOUSE_NUMBER": null, "ROAD_NAME": "Along Palawan Beach Walk", "BUILDING_NAME": "Palawan Beach", "UNIT_NUMBER": null, "POSTAL_CODE": "900021", "AED_LOCATION_DESCRIPTION": "Level 1 Beach Patrol Headquarters", "AED_LOCATION_FLOOR_LEVEL": "1", "LATITUDE": 1.24909794, "LONGITUDE": 103.8222351, "XVAL": 26766.52185, "YVAL": 25744.50382, "INC_CRC": "BC7640442186D046", "FMEL_UPD_D": "20191007131012" }, "geometry": { "type": "Point", "coordinates": [ 103.822235441225246, 1.249098609749029 ] } },
{ "type": "Feature", "properties": { "OBJECTID": 20107, "AED_ID": "900019-001", "OPERATING_HOURS": "Mon - Fri 08:30-18:00; Sat - Sun Closed;", "HOUSE_NUMBER": null, "ROAD_NAME": "Along Palawan Beach Walk", "BUILDING_NAME": "Palawan Beach", "UNIT_NUMBER": null, "POSTAL_CODE": "900019", "AED_LOCATION_DESCRIPTION": "Level 1 Beach Patrol Headquarters", "AED_LOCATION_FLOOR_LEVEL": "1", "LATITUDE": 1.24909794, "LONGITUDE": 103.8222351, "XVAL": 26766.52185, "YVAL": 25744.50382, "INC_CRC": "BC7640449631EFED", "FMEL_UPD_D": "20191007131012" }, "geometry": { "type": "Point", "coordinates": [ 103.822235441225246, 1.249098609749029 ] } },
{ "type": "Feature", "properties": { "OBJECTID": 20108, "AED_ID": "099701-001", "OPERATING_HOURS": "Mon - Sun 00:00-23:59;", "HOUSE_NUMBER": "42", "ROAD_NAME": "Imbiah Road", "BUILDING_NAME": "Tiger Sky Tower", "UNIT_NUMBER": null, "POSTAL_CODE": "99701", "AED_LOCATION_DESCRIPTION": "Level 1 Sky Tower Next To Ticket Counter", "AED_LOCATION_FLOOR_LEVEL": "1", "LATITUDE": 1.254963, "LONGITUDE": 103.817544, "XVAL": 26244.43731, "YVAL": 26393.03403, "INC_CRC": "197D3CE2DEC03AF0", "FMEL_UPD_D": "20191007131012" }, "geometry": { "type": "Point", "coordinates": [ 103.817544333232206, 1.254963666434855 ] } },
{ "type": "Feature", "properties": { "OBJECTID": 20109, "AED_ID": "098588-001", "OPERATING_HOURS": "Mon - Sun 00:00-23:59;", "HOUSE_NUMBER": "10", "ROAD_NAME": "Beach View", "BUILDING_NAME": "Imbiah Station", "UNIT_NUMBER": null, "POSTAL_CODE": "98588", "AED_LOCATION_DESCRIPTION": "Level 1 Imbiah Station Gantry", "AED_LOCATION_FLOOR_LEVEL": "1", "LATITUDE": 1.25386596, "LONGITUDE": 103.819397, "XVAL": 26450.6595, "YVAL": 26271.72756, "INC_CRC": "8478DBE015166FC8", "FMEL_UPD_D": "20191007131012" }, "geometry": { "type": "Point", "coordinates": [ 103.819397306005513, 1.253866624287313 ] } },
{ "type": "Feature", "properties": { "OBJECTID": 20110, "AED_ID": "098141-001", "OPERATING_HOURS": "Mon - Sun 00:00-23:59;", "HOUSE_NUMBER": "32", "ROAD_NAME": "Sentosa Gateway", "BUILDING_NAME": "Waterfront Station", "UNIT_NUMBER": null, "POSTAL_CODE": "98141", "AED_LOCATION_DESCRIPTION": "Level 1 Waterfront Station Gantry", "AED_LOCATION_FLOOR_LEVEL": "1", "LATITUDE": 1.255532, "LONGITUDE": 103.82095, "XVAL": 26623.50147, "YVAL": 26455.94905, "INC_CRC": "A0DE82B53BF72E61", "FMEL_UPD_D": "20191007131012" }, "geometry": { "type": "Point", "coordinates": [ 103.820950333615812, 1.255532667098937 ] } },
{ "type": "Feature", "properties": { "OBJECTID": 21093, "AED_ID": "098679-001", "OPERATING_HOURS": "Mon - Sun 00:00-23:59;", "HOUSE_NUMBER": "23", "ROAD_NAME": "Beach View", "BUILDING_NAME": "Le Meridien Singapore, Sentosa", "UNIT_NUMBER": null, "POSTAL_CODE": "98679", "AED_LOCATION_DESCRIPTION": "Level 1 Fire Command Centre", "AED_LOCATION_FLOOR_LEVEL": "1", "LATITUDE": 1.25273895, "LONGITUDE": 103.8192444, "XVAL": 26433.67686, "YVAL": 26147.10933, "INC_CRC": "9C88067C9FB2B703", "FMEL_UPD_D": "20191007131013" }, "geometry": { "type": "Point", "coordinates": [ 103.819244718447294, 1.252739619045762 ] } },
{ "type": "Feature", "properties": { "OBJECTID": 23437, "AED_ID": "098136-005", "OPERATING_HOURS": "Mon - Sun 00:00-23:59;", "HOUSE_NUMBER": "22", "ROAD_NAME": "Sentosa Gateway", "BUILDING_NAME": "Marine Life Park", "UNIT_NUMBER": null, "POSTAL_CODE": "98136", "AED_LOCATION_DESCRIPTION": "Level B1 SEA Aquarium (Near Shark Sea Conservation Corner)", "AED_LOCATION_FLOOR_LEVEL": "B1", "LATITUDE": 1.25879598, "LONGITUDE": 103.819313, "XVAL": 26441.32234, "YVAL": 26816.86358, "INC_CRC": "32D866F2009933FD", "FMEL_UPD_D": "20191007131013" }, "geometry": { "type": "Point", "coordinates": [ 103.819313382279816, 1.258796643482096 ] } },
{ "type": "Feature", "properties": { "OBJECTID": 23151, "AED_ID": "098604-001", "OPERATING_HOURS": "Mon - Sun 00:00-23:59;", "HOUSE_NUMBER": "50", "ROAD_NAME": "Beach View", "BUILDING_NAME": "Beach Arrival Plaza", "UNIT_NUMBER": null, "POSTAL_CODE": "98604", "AED_LOCATION_DESCRIPTION": "Level 1 Beach Station Gantry", "AED_LOCATION_FLOOR_LEVEL": "1", "LATITUDE": 1.25151002, "LONGITUDE": 103.8178482, "XVAL": 26278.291, "YVAL": 26011.22166, "INC_CRC": "E8F78DDF4B7D0F2E", "FMEL_UPD_D": "20191007131013" }, "geometry": { "type": "Point", "coordinates": [ 103.817848538936531, 1.251510691077231 ] } },
{ "type": "Feature", "properties": { "OBJECTID": 23152, "AED_ID": "098072-001", "OPERATING_HOURS": "Mon - Sun 00:00-23:59;", "HOUSE_NUMBER": "6", "ROAD_NAME": "Sentosa Gateway", "BUILDING_NAME": "Sentosa Boardwalk", "UNIT_NUMBER": null, "POSTAL_CODE": "98072", "AED_LOCATION_DESCRIPTION": "Level 1 Sentosa Board Walk Ticket Counter", "AED_LOCATION_FLOOR_LEVEL": "1", "LATITUDE": 1.25831604, "LONGITUDE": 103.8233185, "XVAL": 26887.09793, "YVAL": 26763.79263, "INC_CRC": "C792FAE0646F5D2A", "FMEL_UPD_D": "20191007131013" }, "geometry": { "type": "Point", "coordinates": [ 103.823318814546269, 1.258316706464844 ] } },
{ "type": "Feature", "properties": { "OBJECTID": 23937, "AED_ID": "098297-003", "OPERATING_HOURS": "Mon - Sun 00:00-23:59;", "HOUSE_NUMBER": "1", "ROAD_NAME": "The Knolls", "BUILDING_NAME": "Capella Hotel, Singapore", "UNIT_NUMBER": null, "POSTAL_CODE": "98297", "AED_LOCATION_DESCRIPTION": "Level B1 Security Checkpoint", "AED_LOCATION_FLOOR_LEVEL": "B1", "LATITUDE": 1.249645, "LONGITUDE": 103.8238907, "XVAL": 26950.77673, "YVAL": 25804.99321, "INC_CRC": "87B1C5CC918E4258", "FMEL_UPD_D": "20191007131013" }, "geometry": { "type": "Point", "coordinates": [ 103.823891019057996, 1.249645661311586 ] } },
{ "type": "Feature", "properties": { "OBJECTID": 23564, "AED_ID": "098008-003", "OPERATING_HOURS": "Mon - Sun 10:00-17:00;", "HOUSE_NUMBER": "31", "ROAD_NAME": "Beach View", "BUILDING_NAME": null, "UNIT_NUMBER": "#01-01,02", "POSTAL_CODE": "98008", "AED_LOCATION_DESCRIPTION": "Level 2 First Aid Room", "AED_LOCATION_FLOOR_LEVEL": "2", "LATITUDE": 1.25118601, "LONGITUDE": 103.8206635, "XVAL": 26591.60839, "YVAL": 25975.39254, "INC_CRC": "53C8F68E7C515CCB", "FMEL_UPD_D": "20191007131013" }, "geometry": { "type": "Point", "coordinates": [ 103.820663785575547, 1.251186679493725 ] } },
{ "type": "Feature", "properties": { "OBJECTID": 23565, "AED_ID": "098008-002", "OPERATING_HOURS": "Mon - Sun 10:00-17:00;", "HOUSE_NUMBER": "31", "ROAD_NAME": "Beach View", "BUILDING_NAME": null, "UNIT_NUMBER": "#01-01,02", "POSTAL_CODE": "98008", "AED_LOCATION_DESCRIPTION": "Level 3 Kindergarten Residential Zone", "AED_LOCATION_FLOOR_LEVEL": "3", "LATITUDE": 1.25123501, "LONGITUDE": 103.8205414, "XVAL": 26578.02283, "YVAL": 25980.81022, "INC_CRC": "F8445F645E549957", "FMEL_UPD_D": "20191007131013" }, "geometry": { "type": "Point", "coordinates": [ 103.820541714910163, 1.251235674686974 ] } },
{ "type": "Feature", "properties": { "OBJECTID": 23566, "AED_ID": "098008-001", "OPERATING_HOURS": "Mon - Sun 10:00-17:00;", "HOUSE_NUMBER": "31", "ROAD_NAME": "Beach View", "BUILDING_NAME": null, "UNIT_NUMBER": "#01-01,02", "POSTAL_CODE": "98008", "AED_LOCATION_DESCRIPTION": "Level 2 Picture Works Next To Lift", "AED_LOCATION_FLOOR_LEVEL": "2", "LATITUDE": 1.25123501, "LONGITUDE": 103.8205414, "XVAL": 26578.02283, "YVAL": 25980.81022, "INC_CRC": "F8445F64EDACFF9B", "FMEL_UPD_D": "20191007131013" }, "geometry": { "type": "Point", "coordinates": [ 103.820541714910163, 1.251235674686974 ] } },
{ "type": "Feature", "properties": { "OBJECTID": 24014, "AED_ID": "098297-002", "OPERATING_HOURS": "Mon - Sun 00:00-23:59;", "HOUSE_NUMBER": "1", "ROAD_NAME": "The Knolls", "BUILDING_NAME": "Capella Hotel, Singapore", "UNIT_NUMBER": null, "POSTAL_CODE": "98297", "AED_LOCATION_DESCRIPTION": "Level 1 Clubhouse", "AED_LOCATION_FLOOR_LEVEL": "1", "LATITUDE": 1.24886406, "LONGITUDE": 103.8231888, "XVAL": 26872.65923, "YVAL": 25718.64121, "INC_CRC": "DB6D88A28F1B9E5E", "FMEL_UPD_D": "20191007131013" }, "geometry": { "type": "Point", "coordinates": [ 103.82318911479814, 1.248864721287029 ] } },
{ "type": "Feature", "properties": { "OBJECTID": 24015, "AED_ID": "098297-001", "OPERATING_HOURS": "Mon - Sun 00:00-23:59;", "HOUSE_NUMBER": "1", "ROAD_NAME": "The Knolls", "BUILDING_NAME": "Capella Hotel, Singapore", "UNIT_NUMBER": null, "POSTAL_CODE": "98297", "AED_LOCATION_DESCRIPTION": "Level 1 Main Building Swimming Pool", "AED_LOCATION_FLOOR_LEVEL": "1", "LATITUDE": 1.24939406, "LONGITUDE": 103.8249207, "XVAL": 27065.4051, "YVAL": 25777.24567, "INC_CRC": "609F2C8697E67B6F", "FMEL_UPD_D": "20191007131013" }, "geometry": { "type": "Point", "coordinates": [ 103.824920987606973, 1.249394726114508 ] } },
{ "type": "Feature", "properties": { "OBJECTID": 22814, "AED_ID": "098973-001", "OPERATING_HOURS": "Mon - Sun 09:00-21:30;", "HOUSE_NUMBER": "2", "ROAD_NAME": "Siloso Road", "BUILDING_NAME": "Flower Terrace Station", "UNIT_NUMBER": null, "POSTAL_CODE": "98973", "AED_LOCATION_DESCRIPTION": "Level 2 Ticketing Counter", "AED_LOCATION_FLOOR_LEVEL": "2", "LATITUDE": 1.25423801, "LONGITUDE": 103.8187408, "XVAL": 26377.63727, "YVAL": 26312.86756, "INC_CRC": "D02455D1F0638A53", "FMEL_UPD_D": "20191007131013" }, "geometry": { "type": "Point", "coordinates": [ 103.818741178325979, 1.254238676490921 ] } },
{ "type": "Feature", "properties": { "OBJECTID": 22816, "AED_ID": "098466-001", "OPERATING_HOURS": "Mon - Sun 09:00-21:30;", "HOUSE_NUMBER": "60", "ROAD_NAME": "Imbiah Road", "BUILDING_NAME": "Imbiah Station", "UNIT_NUMBER": null, "POSTAL_CODE": "98466", "AED_LOCATION_DESCRIPTION": "Level 1 Imbiah Cable Car", "AED_LOCATION_FLOOR_LEVEL": "1", "LATITUDE": 1.25517404, "LONGITUDE": 103.8167648, "XVAL": 26157.72149, "YVAL": 26416.37036, "INC_CRC": "09C60F6351383B5E", "FMEL_UPD_D": "20191007131013" }, "geometry": { "type": "Point", "coordinates": [ 103.816765165004867, 1.25517470783799 ] } }
]
}
